[{"OBJECT_NAME":"SKYKRAFT-1A","OBJECT_ID":"2023-001AX","EPOCH":"2026-03-09T17:03:19.828224","MEAN_MOTION":15.28083228,"ECCENTRICITY":0.00112767,"INCLINATION":97.3349,"RA_OF_ASC_NODE":127.629,"ARG_OF_PERICENTER":121.5092,"MEAN_ANOMALY":238.7251,"EPHEMERIS_TYPE":0,"CLASSIFICATION_TYPE":"U","NORAD_CAT_ID":55054,"ELEMENT_SET_NO":999,"REV_AT_EPOCH":17652,"BSTAR":0.0003006872,"MEAN_MOTION_DOT":8.177e-5,"MEAN_MOTION_DDOT":0},{"OBJECT_NAME":"STARLINK-30039","OBJECT_ID":"2023-107M","EPOCH":"2026-03-09T22:00:01.999584","MEAN_MOTION":15.27585284,"ECCENTRICITY":0.00016935,"INCLINATION":43.0004,"RA_OF_ASC_NODE":335.0485,"ARG_OF_PERICENTER":269.332,"MEAN_ANOMALY":289.7013,"EPHEMERIS_TYPE":0,"CLASSIFICATION_TYPE":"U","NORAD_CAT_ID":57468,"ELEMENT_SET_NO":999,"REV_AT_EPOCH":572,"BSTAR":-0.0001889063,"MEAN_MOTION_DOT":-5.458e-5,"MEAN_MOTION_DDOT":0}]
